{
  "type": "FeatureCollection",
  "features": [
    {
      "type": "Feature",
      "properties": {
        "norad_id": 43260,
        "name": "GAOFEN-1 03",
        "group": "resource",
        "lat": -81.30862055681673,
        "lon": 145.7648997872629,
        "alt_km": 648.2181169120613,
        "timestamp": "2025-12-02T10:50:46.930884+00:00",
        "meta_object_name": "GAOFEN-1 03",
        "meta_object_id": "2018-031B",
        "meta_epoch": "2025-12-02T04:45:41.988096",
        "meta_mean_motion": 14.76400095,
        "meta_eccentricity": 0.0002716,
        "meta_inclination": 98.0813,
        "meta_ra_of_asc_node": 33.8612,
        "meta_arg_of_pericenter": 2.4567,
        "meta_mean_anomaly": 357.6655,
        "meta_ephemeris_type": 0,
        "meta_classification_type": "U",
        "meta_norad_cat_id": 43260,
        "meta_element_set_no": 999,
        "meta_rev_at_epoch": 41362,
        "meta_bstar": 0.0001766,
        "meta_mean_motion_dot": 1.175e-05,
        "meta_mean_motion_ddot": 0,
        "tle_line1": "1 43260U 18031B   25336.19840264  .00001175  00000+0  17660-3 0  9997",
        "tle_line2": "2 43260  98.0813  33.8612 0002716   2.4567 357.6655 14.76400095413628"
      },
      "geometry": {
        "type": "Point",
        "coordinates": [
          145.7648997872629,
          -81.30862055681673
        ]
      }
    },
    {
      "type": "Feature",
      "properties": {
        "norad_id": 43262,
        "name": "GAOFEN-1 04",
        "group": "resource",
        "lat": 35.212569794903644,
        "lon": 28.52696668687597,
        "alt_km": 637.4494692054323,
        "timestamp": "2025-12-02T10:50:46.930894+00:00",
        "meta_object_name": "GAOFEN-1 04",
        "meta_object_id": "2018-031D",
        "meta_epoch": "2025-12-02T04:10:45.912000",
        "meta_mean_motion": 14.76413044,
        "meta_eccentricity": 0.0001391,
        "meta_inclination": 98.0823,
        "meta_ra_of_asc_node": 34.0048,
        "meta_arg_of_pericenter": 63.1299,
        "meta_mean_anomaly": 297.0052,
        "meta_ephemeris_type": 0,
        "meta_classification_type": "U",
        "meta_norad_cat_id": 43262,
        "meta_element_set_no": 999,
        "meta_rev_at_epoch": 41361,
        "meta_bstar": 0.00017636,
        "meta_mean_motion_dot": 1.174e-05,
        "meta_mean_motion_ddot": 0,
        "tle_line1": "1 43262U 18031D   25336.17414250  .00001174  00000+0  17636-3 0  9991",
        "tle_line2": "2 43262  98.0823  34.0048 0001391  63.1299 297.0052 14.76413044413616"
      },
      "geometry": {
        "type": "Point",
        "coordinates": [
          28.52696668687597,
          35.212569794903644
        ]
      }
    },
    {
      "type": "Feature",
      "properties": {
        "norad_id": 43437,
        "name": "SENTINEL-3B",
        "group": "resource",
        "lat": -58.81390176526681,
        "lon": -152.74358882522492,
        "alt_km": 810.3940057170184,
        "timestamp": "2025-12-02T10:50:46.930904+00:00",
        "meta_object_name": "SENTINEL-3B",
        "meta_object_id": "2018-039A",
        "meta_epoch": "2025-12-02T04:40:34.740192",
        "meta_mean_motion": 14.2673608,
        "meta_eccentricity": 0.0001466,
        "meta_inclination": 98.6281,
        "meta_ra_of_asc_node": 41.5306,
        "meta_arg_of_pericenter": 112.8551,
        "meta_mean_anomaly": 247.2785,
        "meta_ephemeris_type": 0,
        "meta_classification_type": "U",
        "meta_norad_cat_id": 43437,
        "meta_element_set_no": 999,
        "meta_rev_at_epoch": 39603,
        "meta_bstar": 9.3085e-05,
        "meta_mean_motion_dot": 1.82e-06,
        "meta_mean_motion_ddot": 0,
        "tle_line1": "1 43437U 18039A   25336.19484653  .00000182  00000+0  93085-4 0  9990",
        "tle_line2": "2 43437  98.6281  41.5306 0001466 112.8551 247.2785 14.26736080396039"
      },
      "geometry": {
        "type": "Point",
        "coordinates": [
          -152.74358882522492,
          -58.81390176526681
        ]
      }
    },
    {
      "type": "Feature",
      "properties": {
        "norad_id": 43461,
        "name": "GAOFEN-5 01",
        "group": "resource",
        "lat": 62.791469773178754,
        "lon": -77.52728295428092,
        "alt_km": 685.044735319837,
        "timestamp": "2025-12-02T10:50:46.930914+00:00",
        "meta_object_name": "GAOFEN-5 01",
        "meta_object_id": "2018-043A",
        "meta_epoch": "2025-12-01T21:23:57.682176",
        "meta_mean_motion": 14.60389358,
        "meta_eccentricity": 0.000167,
        "meta_inclination": 98.4311,
        "meta_ra_of_asc_node": 298.6706,
        "meta_arg_of_pericenter": 14.3292,
        "meta_mean_anomaly": 345.7954,
        "meta_ephemeris_type": 0,
        "meta_classification_type": "U",
        "meta_norad_cat_id": 43461,
        "meta_element_set_no": 999,
        "meta_rev_at_epoch": 40289,
        "meta_bstar": 0.00013041,
        "meta_mean_motion_dot": 5.82e-06,
        "meta_mean_motion_ddot": 0,
        "tle_line1": "1 43461U 18043A   25335.89163984  .00000582  00000+0  13041-3 0  9996",
        "tle_line2": "2 43461  98.4311 298.6706 0001670  14.3292 345.7954 14.60389358402896"
      },
      "geometry": {
        "type": "Point",
        "coordinates": [
          -77.52728295428092,
          62.791469773178754
        ]
      }
    },
    {
      "type": "Feature",
      "properties": {
        "norad_id": 43484,
        "name": "GAOFEN-6",
        "group": "resource",
        "lat": -3.173163114032024,
        "lon": -139.37181031304604,
        "alt_km": 643.4908381036066,
        "timestamp": "2025-12-02T10:50:46.930925+00:00",
        "meta_object_name": "GAOFEN-6",
        "meta_object_id": "2018-048A",
        "meta_epoch": "2025-12-02T01:53:23.034912",
        "meta_mean_motion": 14.76647441,
        "meta_eccentricity": 0.0013007,
        "meta_inclination": 97.8045,
        "meta_ra_of_asc_node": 40.7031,
        "meta_arg_of_pericenter": 93.3192,
        "meta_mean_anomaly": 266.9506,
        "meta_ephemeris_type": 0,
        "meta_classification_type": "U",
        "meta_norad_cat_id": 43484,
        "meta_element_set_no": 999,
        "meta_rev_at_epoch": 40430,
        "meta_bstar": 0.00015465,
        "meta_mean_motion_dot": 1.033e-05,
        "meta_mean_motion_ddot": 0,
        "tle_line1": "1 43484U 18048A   25336.07873883  .00001033  00000+0  15465-3 0  9997",
        "tle_line2": "2 43484  97.8045  40.7031 0013007  93.3192 266.9506 14.76647441404300"
      },
      "geometry": {
        "type": "Point",
        "coordinates": [
          -139.37181031304604,
          -3.173163114032024
        ]
      }
    },
    {
      "type": "Feature",
      "properties": {
        "norad_id": 43585,
        "name": "GAOFEN-11 01",
        "group": "resource",
        "lat": -10.641029043138303,
        "lon": -141.87763467672602,
        "alt_km": 428.06198372800645,
        "timestamp": "2025-12-02T10:50:46.930942+00:00",
        "meta_object_name": "GAOFEN-11 01",
        "meta_object_id": "2018-063A",
        "meta_epoch": "2025-12-02T05:22:26.276736",
        "meta_mean_motion": 15.48771033,
        "meta_eccentricity": 0.0005072,
        "meta_inclination": 97.1583,
        "meta_ra_of_asc_node": 39.2494,
        "meta_arg_of_pericenter": 358.177,
        "meta_mean_anomaly": 1.9461,
        "meta_ephemeris_type": 0,
        "meta_classification_type": "U",
        "meta_norad_cat_id": 43585,
        "meta_element_set_no": 999,
        "meta_rev_at_epoch": 40979,
        "meta_bstar": 0.00032469,
        "meta_mean_motion_dot": 0.00017361,
        "meta_mean_motion_ddot": 0,
        "tle_line1": "1 43585U 18063A   25336.22391524  .00017361  00000+0  32469-3 0  9994",
        "tle_line2": "2 43585  97.1583  39.2494 0005072 358.1770   1.9461 15.48771033409795"
      },
      "geometry": {
        "type": "Point",
        "coordinates": [
          -141.87763467672602,
          -10.641029043138303
        ]
      }
    },
    {
      "type": "Feature",
      "properties": {
        "norad_id": 43613,
        "name": "ICESAT-2",
        "group": "resource",
        "lat": -22.77765099522181,
        "lon": -121.19679841639932,
        "alt_km": 486.8890750861792,
        "timestamp": "2025-12-02T10:50:46.930953+00:00",
        "meta_object_name": "ICESAT-2",
        "meta_object_id": "2018-070A",
        "meta_epoch": "2025-12-02T04:39:36.120384",
        "meta_mean_motion": 15.28298799,
        "meta_eccentricity": 5.85e-05,
        "meta_inclination": 92.0054,
        "meta_ra_of_asc_node": 237.8906,
        "meta_arg_of_pericenter": 150.421,
        "meta_mean_anomaly": 209.7072,
        "meta_ephemeris_type": 0,
        "meta_classification_type": "U",
        "meta_norad_cat_id": 43613,
        "meta_element_set_no": 999,
        "meta_rev_at_epoch": 40237,
        "meta_bstar": 0.00057361,
        "meta_mean_motion_dot": 0.00015816,
        "meta_mean_motion_ddot": 0,
        "tle_line1": "1 43613U 18070A   25336.19416806  .00015816  00000+0  57361-3 0  9992",
        "tle_line2": "2 43613  92.0054 237.8906 0000585 150.4210 209.7072 15.28298799402378"
      },
      "geometry": {
        "type": "Point",
        "coordinates": [
          -121.19679841639932,
          -22.77765099522181
        ]
      }
    }
  ]
}